{"type": "FeatureCollection", "features": [ {"type": "Feature", "properties": {"norad_id": 58662, "name": "TIANMU-1 21", "group": "weather", "lat": -82.55395031398115, "lon": -168.42963053645087, "alt_km": 474.5729615471055, "timestamp": "2025-12-12T07:43:20.146338+00:00", "meta": {"OBJECT_NAME": "TIANMU-1 21", "OBJECT_ID": "2023-208C", "EPOCH": "2025-12-12T00:16:30.940608", "MEAN_MOTION": 15.31525493, "ECCENTRICITY": 0.00059272, "INCLINATION": 97.437, "RA_OF_ASC_NODE": 99.4019, "ARG_OF_PERICENTER": 263.4233, "MEAN_ANOMALY": 96.6334, "EPHEMERIS_TYPE": 0, "CLASSIFICATION_TYPE": "U", "NORAD_CAT_ID": 58662, "ELEMENT_SET_NO": 999, "REV_AT_EPOCH": 10888, "BSTAR": 0.00053698354, "MEAN_MOTION_DOT": 0.00016294, "MEAN_MOTION_DDOT": 0}, "tle": {"line1": "1 58662U 23208C   25346.01146922  .00016294  00000+0  53698-3 0  9992", "line2": "2 58662  97.4370  99.4019 0005927 263.4233  96.6334 15.31525493108881"}}, "geometry": {"type": "Point", "coordinates": [-168.42963053645087, -82.55395031398115]}}, {"type": "Feature", "properties": {"norad_id": 58663, "name": "TIANMU-1 22", "group": "weather", "lat": -17.874886962571107, "lon": -84.99617202191939, "alt_km": 488.17521816277895, "timestamp": "2025-12-12T07:43:20.146348+00:00", "meta": {"OBJECT_NAME": "TIANMU-1 22", "OBJECT_ID": "2023-208D", "EPOCH": "2025-12-11T22:59:51.706176", "MEAN_MOTION": 15.27583049, "ECCENTRICITY": 0.00027006, "INCLINATION": 97.4378, "RA_OF_ASC_NODE": 97.056, "ARG_OF_PERICENTER": 291.3208, "MEAN_ANOMALY": 68.7742, "EPHEMERIS_TYPE": 0, "CLASSIFICATION_TYPE": "U", "NORAD_CAT_ID": 58663, "ELEMENT_SET_NO": 999, "REV_AT_EPOCH": 10871, "BSTAR": 0.00046244291, "MEAN_MOTION_DOT": 0.00012408, "MEAN_MOTION_DDOT": 0}, "tle": {"line1": "1 58663U 23208D   25345.95823734  .00012408  00000+0  46244-3 0  9990", "line2": "2 58663  97.4378  97.0560 0002700 291.3208  68.7742 15.27583049108714"}}, "geometry": {"type": "Point", "coordinates": [-84.99617202191939, -17.874886962571107]}}, {"type": "Feature", "properties": {"norad_id": 58700, "name": "TIANMU-1 15", "group": "weather", "lat": -27.989822626909515, "lon": 171.78819491785333, "alt_km": 494.4823829351535, "timestamp": "2025-12-12T07:43:20.146358+00:00", "meta": {"OBJECT_NAME": "TIANMU-1 15", "OBJECT_ID": "2024-004A", "EPOCH": "2025-12-11T12:56:40.540704", "MEAN_MOTION": 15.24670451, "ECCENTRICITY": 0.00052437, "INCLINATION": 97.4631, "RA_OF_ASC_NODE": 167.0136, "ARG_OF_PERICENTER": 303.7498, "MEAN_ANOMALY": 56.324, "EPHEMERIS_TYPE": 0, "CLASSIFICATION_TYPE": "U", "NORAD_CAT_ID": 58700, "ELEMENT_SET_NO": 999, "REV_AT_EPOCH": 10716, "BSTAR": 0.00086402607, "MEAN_MOTION_DOT": 0.00021326, "MEAN_MOTION_DDOT": 0}, "tle": {"line1": "1 58700U 24004A   25345.53935811  .00021326  00000+0  86403-3 0  9991", "line2": "2 58700  97.4631 167.0136 0005243 303.7498  56.3240 15.24670451107164"}}, "geometry": {"type": "Point", "coordinates": [171.78819491785333, -27.989822626909515]}}, {"type": "Feature", "properties": {"norad_id": 58701, "name": "TIANMU-1 16", "group": "weather", "lat": 53.26202022488825, "lon": 157.07525189324608, "alt_km": 488.89344708781937, "timestamp": "2025-12-12T07:43:20.146368+00:00", "meta": {"OBJECT_NAME": "TIANMU-1 16", "OBJECT_ID": "2024-004B", "EPOCH": "2025-12-11T23:36:34.792128", "MEAN_MOTION": 15.24417331, "ECCENTRICITY": 0.00045112, "INCLINATION": 97.4571, "RA_OF_ASC_NODE": 166.8457, "ARG_OF_PERICENTER": 299.6673, "MEAN_ANOMALY": 60.4115, "EPHEMERIS_TYPE": 0, "CLASSIFICATION_TYPE": "U", "NORAD_CAT_ID": 58701, "ELEMENT_SET_NO": 999, "REV_AT_EPOCH": 10723, "BSTAR": 0.00043584826, "MEAN_MOTION_DOT": 0.00010625, "MEAN_MOTION_DDOT": 0}, "tle": {"line1": "1 58701U 24004B   25345.98373602  .00010625  00000+0  43585-3 0  9999", "line2": "2 58701  97.4571 166.8457 0004511 299.6673  60.4115 15.24417331107237"}}, "geometry": {"type": "Point", "coordinates": [157.07525189324608, 53.26202022488825]}}, {"type": "Feature", "properties": {"norad_id": 58702, "name": "TIANMU-1 17", "group": "weather", "lat": 41.123385404342045, "lon": -5.838401026731287, "alt_km": 491.6252789881846, "timestamp": "2025-12-12T07:43:20.146381+00:00", "meta": {"OBJECT_NAME": "TIANMU-1 17", "OBJECT_ID": "2024-004C", "EPOCH": "2025-12-12T00:48:56.937312", "MEAN_MOTION": 15.24462665, "ECCENTRICITY": 0.00037037, "INCLINATION": 97.4606, "RA_OF_ASC_NODE": 167.3054, "ARG_OF_PERICENTER": 303.8291, "MEAN_ANOMALY": 56.2594, "EPHEMERIS_TYPE": 0, "CLASSIFICATION_TYPE": "U", "NORAD_CAT_ID": 58702, "ELEMENT_SET_NO": 999, "REV_AT_EPOCH": 10723, "BSTAR": 0.00040342662, "MEAN_MOTION_DOT": 9.841e-05, "MEAN_MOTION_DDOT": 0}, "tle": {"line1": "1 58702U 24004C   25346.03399233  .00009841  00000+0  40343-3 0  9992", "line2": "2 58702  97.4606 167.3054 0003703 303.8291  56.2594 15.24462665107236"}}, "geometry": {"type": "Point", "coordinates": [-5.838401026731287, 41.123385404342045]}}, {"type": "Feature", "properties": {"norad_id": 58703, "name": "TIANMU-1 18", "group": "weather", "lat": -49.3876638500546, "lon": -21.0054693730873, "alt_km": 498.7365511204325, "timestamp": "2025-12-12T07:43:20.146392+00:00", "meta": {"OBJECT_NAME": "TIANMU-1 18", "OBJECT_ID": "2024-004D", "EPOCH": "2025-12-12T00:24:54.792576", "MEAN_MOTION": 15.24449282, "ECCENTRICITY": 0.0003059, "INCLINATION": 97.4622, "RA_OF_ASC_NODE": 167.484, "ARG_OF_PERICENTER": 303.8958, "MEAN_ANOMALY": 56.1988, "EPHEMERIS_TYPE": 0, "CLASSIFICATION_TYPE": "U", "NORAD_CAT_ID": 58703, "ELEMENT_SET_NO": 999, "REV_AT_EPOCH": 10723, "BSTAR": 0.00039197046, "MEAN_MOTION_DOT": 9.555e-05, "MEAN_MOTION_DDOT": 0}, "tle": {"line1": "1 58703U 24004D   25346.01730084  .00009555  00000+0  39197-3 0  9991", "line2": "2 58703  97.4622 167.4840 0003059 303.8958  56.1988 15.24449282107239"}}, "geometry": {"type": "Point", "coordinates": [-21.0054693730873, -49.3876638500546]}}, {"type": "Feature", "properties": {"norad_id": 58990, "name": "INSAT-3DS", "group": "weather", "lat": -0.006755121971168905, "lon": -80.81754183794409, "alt_km": 35780.33202379105, "timestamp": "2025-12-12T07:43:20.146404+00:00", "meta": {"OBJECT_NAME": "INSAT-3DS", "OBJECT_ID": "2024-033A", "EPOCH": "2025-12-11T23:22:47.486208", "MEAN_MOTION": 1.00272538, "ECCENTRICITY": 0.00013614, "INCLINATION": 0.0393, "RA_OF_ASC_NODE": 135.6094, "ARG_OF_PERICENTER": 128.2907, "MEAN_ANOMALY": 249.804, "EPHEMERIS_TYPE": 0, "CLASSIFICATION_TYPE": "U", "NORAD_CAT_ID": 58990, "ELEMENT_SET_NO": 999, "REV_AT_EPOCH": 4519, "BSTAR": 0, "MEAN_MOTION_DOT": -1.47e-06, "MEAN_MOTION_DDOT": 0}, "tle": {"line1": "1 58990U 24033A   25345.97416072 -.00000147  00000+0  00000+0 0  9999", "line2": "2 58990   0.0393 135.6094 0001361 128.2907 249.8040  1.00272538 45190"}}, "geometry": {"type": "Point", "coordinates": [-80.81754183794409, -0.006755121971168905]}}, {"type": "Feature", "properties": {"norad_id": 59051, "name": "METEOR-M2 4", "group": "weather", "lat": -17.844514374112627, "lon": 120.41953221767233, "alt_km": 827.0106142074919, "timestamp": "2025-12-12T07:43:20.146415+00:00", "meta": {"OBJECT_NAME": "METEOR-M2 4", "OBJECT_ID": "2024-039A", "EPOCH": "2025-12-12T00:02:29.281056", "MEAN_MOTION": 14.22401074, "ECCENTRICITY": 0.00070809, "INCLINATION": 98.6765, "RA_OF_ASC_NODE": 302.9222, "ARG_OF_PERICENTER": 0.7412, "MEAN_ANOMALY": 359.3775, "EPHEMERIS_TYPE": 0, "CLASSIFICATION_TYPE": "U", "NORAD_CAT_ID": 59051, "ELEMENT_SET_NO": 999, "REV_AT_EPOCH": 9265, "BSTAR": 5.346211e-05, "MEAN_MOTION_DOT": 7.5e-07, "MEAN_MOTION_DDOT": 0}, "tle": {"line1": "1 59051U 24039A   25346.00172779  .00000075  00000+0  53462-4 0  9996", "line2": "2 59051  98.6765 302.9222 0007080   0.7412 359.3775 14.22401074 92658"}}, "geometry": {"type": "Point", "coordinates": [120.41953221767233, -17.844514374112627]}}, {"type": "Feature", "properties": {"norad_id": 60133, "name": "GOES 19", "group": "weather", "lat": -0.00021033622625149268, "lon": 121.91471531156331, "alt_km": 35791.74169475574, "timestamp": "2025-12-12T07:43:20.146426+00:00", "meta": {"OBJECT_NAME": "GOES 19", "OBJECT_ID": "2024-119A", "EPOCH": "2025-12-11T23:25:35.124672", "MEAN_MOTION": 1.00270948, "ECCENTRICITY": 0.00012955, "INCLINATION": 0.0413, "RA_OF_ASC_NODE": 148.6315, "ARG_OF_PERICENTER": 162.2018, "MEAN_ANOMALY": 46.3074, "EPHEMERIS_TYPE": 0, "CLASSIFICATION_TYPE": "U", "NORAD_CAT_ID": 60133, "ELEMENT_SET_NO": 999, "REV_AT_EPOCH": 508, "BSTAR": 0, "MEAN_MOTION_DOT": -2.39e-06, "MEAN_MOTION_DDOT": 0}, "tle": {"line1": "1 60133U 24119A   25345.97610098 -.00000239  00000+0  00000+0 0  9992", "line2": "2 60133   0.0413 148.6315 0001295 162.2018  46.3074  1.00270948  5086"}}, "geometry": {"type": "Point", "coordinates": [121.91471531156331, -0.00021033622625149268]}}, {"type": "Feature", "properties": {"norad_id": 65815, "name": "FENGYUN 3H", "group": "weather", "lat": 77.24714549832771, "lon": -116.39642814272209, "alt_km": 817.9572790998491, "timestamp": "2025-12-12T07:43:20.146437+00:00", "meta": {"OBJECT_NAME": "FENGYUN 3H", "OBJECT_ID": "2025-219A", "EPOCH": "2025-12-11T22:53:16.970496", "MEAN_MOTION": 14.19904399, "ECCENTRICITY": 6.106e-05, "INCLINATION": 98.6583, "RA_OF_ASC_NODE": 285.5611, "ARG_OF_PERICENTER": 90.7038, "MEAN_ANOMALY": 269.4208, "EPHEMERIS_TYPE": 0, "CLASSIFICATION_TYPE": "U", "NORAD_CAT_ID": 65815, "ELEMENT_SET_NO": 999, "REV_AT_EPOCH": 1081, "BSTAR": 0.00010523179, "MEAN_MOTION_DOT": 1.8e-06, "MEAN_MOTION_DDOT": 0}, "tle": {"line1": "1 65815U 25219A   25345.95366864  .00000180  00000+0  10523-3 0  9992", "line2": "2 65815  98.6583 285.5611 0000610  90.7038 269.4208 14.19904399 10818"}}, "geometry": {"type": "Point", "coordinates": [-116.39642814272209, 77.24714549832771]}}]}